CCSDS_OMM_VERS = 2.0
CREATION_DATE  = 
ORIGINATOR     = 

OBJECT_NAME    = SHENZHOU-21 (SZ-21)
OBJECT_ID      = 2025-246A
CENTER_NAME    = EARTH
REF_FRAME      = TEME
TIME_SYSTEM    = UTC
MEAN_ELEMENT_THEORY = SGP/SGP4

EPOCH          = 2025-11-06T03:27:36.592992
MEAN_MOTION    = 15.60501928
ECCENTRICITY   = .00058828
INCLINATION    = 41.4668
RA_OF_ASC_NODE = 238.9361
ARG_OF_PERICENTER = 331.1905
MEAN_ANOMALY   = 28.8608

EPHEMERIS_TYPE = 0
CLASSIFICATION_TYPE = U
NORAD_CAT_ID   = 66263
ELEMENT_SET_NO = 999
REV_AT_EPOCH   = 25813
BSTAR          = .78556468E-3
MEAN_MOTION_DOT = .66877E-3
MEAN_MOTION_DDOT = 0

CCSDS_OMM_VERS = 2.0
CREATION_DATE  = 
ORIGINATOR     = 

OBJECT_NAME    = CZ-2F R/B
OBJECT_ID      = 2025-246B
CENTER_NAME    = EARTH
REF_FRAME      = TEME
TIME_SYSTEM    = UTC
MEAN_ELEMENT_THEORY = SGP/SGP4

EPOCH          = 2025-11-06T04:15:43.072704
MEAN_MOTION    = 16.11225119
ECCENTRICITY   = .00853484
INCLINATION    = 41.4649
RA_OF_ASC_NODE = 236.4368
ARG_OF_PERICENTER = 168.2812
MEAN_ANOMALY   = 192.0056

EPHEMERIS_TYPE = 0
CLASSIFICATION_TYPE = U
NORAD_CAT_ID   = 66264
ELEMENT_SET_NO = 999
REV_AT_EPOCH   = 89
BSTAR          = .71483872E-3
MEAN_MOTION_DOT = .1412961E-1
MEAN_MOTION_DDOT = .7596972E-5

