SHENZHOU-21 (SZ-21)     
1 66263U 25246A   25310.14417353  .00066877  00000+0  78556-3 0  9998
2 66263  41.4668 238.9361 0005882 331.1905  28.8608 15.60501928258139
CZ-2F R/B               
1 66264U 25246B   25310.17758186  .01412961  75970-5  71484-3 0  9991
2 66264  41.4649 236.4368 0085348 168.2812 192.0056 16.11225119   891
